NOAA 18                 
1 28654U 05018A   26093.80853145  .00000093  00000+0  72411-4 0  9993
2 28654  98.8124 174.5600 0014241   7.0524 353.0846 14.13716273 75806
NOAA 19                 
1 33591U 09005A   26093.79419617  .00000087  00000+0  70057-4 0  9996
2 33591  98.9562 164.6018 0012907 238.1750 121.8166 14.13461995883976
SUOMI NPP               
1 37849U 11061A   26093.83633037  .00000162  00000+0  98056-4 0  9993
2 37849  98.7902  35.2431 0001980 145.7491 214.3813 14.19500787747894
NOAA 20 (JPSS-1)        
1 43013U 17073A   26093.78009256  .00000157  00000+0  95159-4 0  9991
2 43013  98.7723  33.9223 0002020 103.7443 256.3958 14.19543022433916
