[{"OBJECT_NAME":"NOAA 18","OBJECT_ID":"2005-018A","EPOCH":"2026-04-03T19:24:17.117280","MEAN_MOTION":14.13716273,"ECCENTRICITY":0.0014241,"INCLINATION":98.8124,"RA_OF_ASC_NODE":174.56,"ARG_OF_PERICENTER":7.0524,"MEAN_ANOMALY":353.0846,"EPHEMERIS_TYPE":0,"CLASSIFICATION_TYPE":"U","NORAD_CAT_ID":28654,"ELEMENT_SET_NO":999,"REV_AT_EPOCH":7580,"BSTAR":7.2411e-5,"MEAN_MOTION_DOT":9.3e-7,"MEAN_MOTION_DDOT":0},{"OBJECT_NAME":"NOAA 19","OBJECT_ID":"2009-005A","EPOCH":"2026-04-03T19:03:38.549088","MEAN_MOTION":14.13461995,"ECCENTRICITY":0.0012907,"INCLINATION":98.9562,"RA_OF_ASC_NODE":164.6018,"ARG_OF_PERICENTER":238.175,"MEAN_ANOMALY":121.8166,"EPHEMERIS_TYPE":0,"CLASSIFICATION_TYPE":"U","NORAD_CAT_ID":33591,"ELEMENT_SET_NO":999,"REV_AT_EPOCH":88397,"BSTAR":7.0057e-5,"MEAN_MOTION_DOT":8.7e-7,"MEAN_MOTION_DDOT":0},{"OBJECT_NAME":"SUOMI NPP","OBJECT_ID":"2011-061A","EPOCH":"2026-04-03T20:04:18.943968","MEAN_MOTION":14.19500787,"ECCENTRICITY":0.000198,"INCLINATION":98.7902,"RA_OF_ASC_NODE":35.2431,"ARG_OF_PERICENTER":145.7491,"MEAN_ANOMALY":214.3813,"EPHEMERIS_TYPE":0,"CLASSIFICATION_TYPE":"U","NORAD_CAT_ID":37849,"ELEMENT_SET_NO":999,"REV_AT_EPOCH":74789,"BSTAR":9.8056e-5,"MEAN_MOTION_DOT":1.62e-6,"MEAN_MOTION_DDOT":0},{"OBJECT_NAME":"NOAA 20 (JPSS-1)","OBJECT_ID":"2017-073A","EPOCH":"2026-04-03T18:43:19.997184","MEAN_MOTION":14.19543022,"ECCENTRICITY":0.000202,"INCLINATION":98.7723,"RA_OF_ASC_NODE":33.9223,"ARG_OF_PERICENTER":103.7443,"MEAN_ANOMALY":256.3958,"EPHEMERIS_TYPE":0,"CLASSIFICATION_TYPE":"U","NORAD_CAT_ID":43013,"ELEMENT_SET_NO":999,"REV_AT_EPOCH":43391,"BSTAR":9.5159e-5,"MEAN_MOTION_DOT":1.57e-6,"MEAN_MOTION_DDOT":0}]
